SBSS (USA 216)          
1 37168U 10048A   26068.88624904  .00004946  00000+0  24191-3 0  9993
2 37168  97.7474 312.3885 0082264 184.8326 306.5835 15.15724210837421
STARLINK-34523          
1 64475U 25133D   26068.40543232  .00029934  00000+0  10182-2 0  9995
2 64475  53.1582 118.2092 0001344  89.5276 270.5878 15.30216493 41123
